*******************************************************************************
JPL/HORIZONS              1673 van Houten (1937 TH)        2023-Sep-04 11:13:30
Rec #:    1673 (+COV) Soln.date: 2023-Aug-22_08:32:05   # obs: 3712 (1937-2023)
 
IAU76/J2000 helio. ecliptic osc. elements (au, days, deg., period=Julian yrs):
 
  EPOCH=  2457524.5 ! 2016-May-16.00 (TDB)         Residual RMS= .27929
   EC= .1785356392804603   QR= 2.551749985203399   TP= 2456881.5326820128
   OM= 208.0265906179651   W=  209.3641173795044   IN= 3.582992370680036
   A= 3.106342900826838    MA= 115.7494351191377   ADIST= 3.660935816450277
   PER= 5.47498            N= .180023824           ANGMOM= .029831278
   DAN= 3.56149            DDN= 2.6024             L= 57.3428237
   B= -1.7560791           MOID= 1.56473005        TP= 2014-Aug-12.0326820128
 
Asteroid physical parameters (km, seconds, rotational period in hours):
   GM= n.a.                RAD= 10.3665            ROTPER= n.a.
   H= 12.22                G= .150                 B-V= n.a.
                           ALBEDO= .088            STYP= n.a.

ASTEROID comments: 
1: soln ref.= JPL#59, OCC=0
2: source=ORB
*******************************************************************************


*******************************************************************************
Ephemeris / API_USER Mon Sep  4 11:13:30 2023 Pasadena, USA      / Horizons
*******************************************************************************
Target body name: 1673 van Houten (1937 TH)       {source: JPL#59}
Center body name: Solar System Barycenter (0)     {source: DE441}
Center-site name: BODY CENTER
*******************************************************************************
Start time      : A.D. 2023-Aug-12 00:00:00.0000 TDB
Stop  time      : A.D. 2023-Aug-13 00:00:00.0000 TDB
Step-size       : 2880 minutes
*******************************************************************************
Center geodetic : 0.0, 0.0, 0.0                   {E-lon(deg),Lat(deg),Alt(km)}
Center cylindric: 0.0, 0.0, 0.0                   {E-lon(deg),Dxy(km),Dz(km)}
Center radii    : (undefined)
Small perturbers: Yes                             {source: SB441-N16}
Output units    : KM-S
Calendar mode   : Mixed Julian/Gregorian
Output type     : GEOMETRIC cartesian states
Output format   : 2 (position and velocity)
Reference frame : Ecliptic of J2000.0
*******************************************************************************
Initial IAU76/J2000 heliocentric ecliptic osculating elements (au, days, deg.):
  EPOCH=  2457524.5 ! 2016-May-16.00 (TDB)         Residual RMS= .27929        
   EC= .1785356392804603   QR= 2.551749985203399   TP= 2456881.5326820128      
   OM= 208.0265906179651   W=  209.3641173795044   IN= 3.582992370680036       
  Equivalent ICRF heliocentric cartesian coordinates (au, au/d):
   X=-3.368251939993929E+00  Y=-5.035789985022434E-01  Z=-2.915227785638825E-01
  VX= 1.728967137345702E-04 VY=-8.278389644285584E-03 VZ=-3.052841983076553E-03
Asteroid physical parameters (km, seconds, rotational period in hours):        
   GM= n.a.                RAD= 10.3665            ROTPER= n.a.                
   H= 12.22                G= .150                 B-V= n.a.                   
                           ALBEDO= .088            STYP= n.a.                  
*******************************************************************************
JDTDB
   X     Y     Z
   VX    VY    VZ
*******************************************************************************
$$SOE
2460168.500000000 = A.D. 2023-Aug-12 00:00:00.0000 TDB 
 X = 5.106002438177908E+07 Y =-5.194316876352367E+08 Z = 3.035064064261469E+07
 VX= 1.448112960738192E+01 VY= 3.437268549302469E+00 VZ= 2.354932701598720E-01
$$EOE
*******************************************************************************
 
TIME

  Barycentric Dynamical Time ("TDB" or T_eph) output was requested. This
continuous coordinate time is equivalent to the relativistic proper time
of a clock at rest in a reference frame co-moving with the solar system
barycenter but outside the system's gravity well. It is the independent
variable in the solar system relativistic equations of motion.

  TDB runs at a uniform rate of one SI second per second and is independent
of irregularities in Earth's rotation.
 
CALENDAR SYSTEM

  Mixed calendar mode was active such that calendar dates after AD 1582-Oct-15
(if any) are in the modern Gregorian system. Dates prior to 1582-Oct-5 (if any)
are in the Julian calendar system, which is automatically extended for dates
prior to its adoption on 45-Jan-1 BC.  The Julian calendar is useful for
matching historical dates. The Gregorian calendar more accurately corresponds
to the Earth's orbital motion and seasons. A "Gregorian-only" calendar mode is
available if such physical events are the primary interest.

REFERENCE FRAME AND COORDINATES

  Ecliptic at the standard reference epoch

    Reference epoch: J2000.0
    X-Y plane: adopted Earth orbital plane at the reference epoch
               Note: IAU76 obliquity of 84381.448 arcseconds wrt ICRF X-Y plane
    X-axis   : ICRF
    Z-axis   : perpendicular to the X-Y plane in the directional (+ or -) sense
               of Earth's north pole at the reference epoch.

  Symbol meaning:

    JDTDB    Julian Day Number, Barycentric Dynamical Time
      X      X-component of position vector (km)
      Y      Y-component of position vector (km)
      Z      Z-component of position vector (km)
      VX     X-component of velocity vector (km/sec)                           
      VY     Y-component of velocity vector (km/sec)                           
      VZ     Z-component of velocity vector (km/sec)                           

ABERRATIONS AND CORRECTIONS

 Geometric state vectors have NO corrections or aberrations applied.

Computations by ...

    Solar System Dynamics Group, Horizons On-Line Ephemeris System
    4800 Oak Grove Drive, Jet Propulsion Laboratory
    Pasadena, CA  91109   USA

    General site: https://ssd.jpl.nasa.gov/
    Mailing list: https://ssd.jpl.nasa.gov/email_list.html
    System news : https://ssd.jpl.nasa.gov/horizons/news.html
    User Guide  : https://ssd.jpl.nasa.gov/horizons/manual.html
    Connect     : browser        https://ssd.jpl.nasa.gov/horizons/app.html#/x
                  API            https://ssd-api.jpl.nasa.gov/doc/horizons.html
                  command-line   telnet ssd.jpl.nasa.gov 6775
                  e-mail/batch   https://ssd.jpl.nasa.gov/ftp/ssd/hrzn_batch.txt
                  scripts        https://ssd.jpl.nasa.gov/ftp/ssd/SCRIPTS
    Author      : Jon.D.Giorgini@jpl.nasa.gov
*******************************************************************************
